{"type": "FeatureCollection", "features": [ {"type": "Feature", "properties": {"norad_id": 39122, "name": "EUTELSAT 117 WEST A", "group": "eutelsat", "lat": 0.016640752999344987, "lon": 135.1134124400504, "alt_km": 35793.878589378844, "timestamp": "2025-12-09T11:33:54.471832+00:00", "meta": {"OBJECT_NAME": "EUTELSAT 117 WEST A", "OBJECT_ID": "2013-012A", "EPOCH": "2025-12-09T03:18:42.454368", "MEAN_MOTION": 1.00270625, "ECCENTRICITY": 0.0003083, "INCLINATION": 0.013, "RA_OF_ASC_NODE": 346.505, "ARG_OF_PERICENTER": 273.6015, "MEAN_ANOMALY": 110.9018, "EPHEMERIS_TYPE": 0, "CLASSIFICATION_TYPE": "U", "NORAD_CAT_ID": 39122, "ELEMENT_SET_NO": 999, "REV_AT_EPOCH": 4652, "BSTAR": 0, "MEAN_MOTION_DOT": -1.1e-07, "MEAN_MOTION_DDOT": 0}, "tle": {"line1": "1 39122U 13012A   25343.13799137 -.00000011  00000+0  00000+0 0  9992", "line2": "2 39122   0.0130 346.5050 0003083 273.6015 110.9018  1.00270625 46524"}}, "geometry": {"type": "Point", "coordinates": [135.1134124400504, 0.016640752999344987]}}, {"type": "Feature", "properties": {"norad_id": 39163, "name": "EUTELSAT 7B", "group": "eutelsat", "lat": -0.08350018544865606, "lon": -101.11031957686984, "alt_km": 35775.17984387054, "timestamp": "2025-12-09T11:33:54.471844+00:00", "meta": {"OBJECT_NAME": "EUTELSAT 7B", "OBJECT_ID": "2013-022A", "EPOCH": "2025-12-09T03:20:00.432096", "MEAN_MOTION": 1.00271528, "ECCENTRICITY": 0.0004567, "INCLINATION": 0.0704, "RA_OF_ASC_NODE": 13.8412, "ARG_OF_PERICENTER": 300.5379, "MEAN_ANOMALY": 180.7439, "EPHEMERIS_TYPE": 0, "CLASSIFICATION_TYPE": "U", "NORAD_CAT_ID": 39163, "ELEMENT_SET_NO": 999, "REV_AT_EPOCH": 4605, "BSTAR": 0, "MEAN_MOTION_DOT": 5e-07, "MEAN_MOTION_DDOT": 0}, "tle": {"line1": "1 39163U 13022A   25343.13889389  .00000050  00000+0  00000+0 0  9999", "line2": "2 39163   0.0704  13.8412 0004567 300.5379 180.7439  1.00271528 46056"}}, "geometry": {"type": "Point", "coordinates": [-101.11031957686984, -0.08350018544865606]}}, {"type": "Feature", "properties": {"norad_id": 39612, "name": "EXPRESS-AT1", "group": "eutelsat", "lat": -0.0032146503073757337, "lon": -52.02760818745637, "alt_km": 35777.04346968792, "timestamp": "2025-12-09T11:33:54.471856+00:00", "meta": {"OBJECT_NAME": "EXPRESS-AT1", "OBJECT_ID": "2014-010A", "EPOCH": "2025-12-09T03:33:59.092704", "MEAN_MOTION": 1.00291062, "ECCENTRICITY": 8.66e-05, "INCLINATION": 0.015, "RA_OF_ASC_NODE": 294.6508, "ARG_OF_PERICENTER": 21.7051, "MEAN_ANOMALY": 231.2889, "EPHEMERIS_TYPE": 0, "CLASSIFICATION_TYPE": "U", "NORAD_CAT_ID": 39612, "ELEMENT_SET_NO": 999, "REV_AT_EPOCH": 4291, "BSTAR": 0, "MEAN_MOTION_DOT": 7.8e-07, "MEAN_MOTION_DDOT": 0}, "tle": {"line1": "1 39612U 14010A   25343.14860061  .00000078  00000+0  00000+0 0  9993", "line2": "2 39612   0.0150 294.6508 0000866  21.7051 231.2889  1.00291062 42919"}}, "geometry": {"type": "Point", "coordinates": [-52.02760818745637, -0.0032146503073757337]}}, {"type": "Feature", "properties": {"norad_id": 39613, "name": "EXPRESS-AT2", "group": "eutelsat", "lat": 0.03351280599522366, "lon": 31.82784761634411, "alt_km": 35787.929311461914, "timestamp": "2025-12-09T11:33:54.471870+00:00", "meta": {"OBJECT_NAME": "EXPRESS-AT2", "OBJECT_ID": "2014-010B", "EPOCH": "2025-12-09T04:20:38.774112", "MEAN_MOTION": 1.00272476, "ECCENTRICITY": 0.000156, "INCLINATION": 0.0184, "RA_OF_ASC_NODE": 311.8251, "ARG_OF_PERICENTER": 332.4367, "MEAN_ANOMALY": 358.9398, "EPHEMERIS_TYPE": 0, "CLASSIFICATION_TYPE": "U", "NORAD_CAT_ID": 39613, "ELEMENT_SET_NO": 999, "REV_AT_EPOCH": 4259, "BSTAR": 0, "MEAN_MOTION_DOT": -2.79e-06, "MEAN_MOTION_DDOT": 0}, "tle": {"line1": "1 39613U 14010B   25343.18100433 -.00000279  00000+0  00000+0 0  9992", "line2": "2 39613   0.0184 311.8251 0001560 332.4367 358.9398  1.00272476 42592"}}, "geometry": {"type": "Point", "coordinates": [31.82784761634411, 0.03351280599522366]}}, {"type": "Feature", "properties": {"norad_id": 39773, "name": "EUTELSAT 3B", "group": "eutelsat", "lat": -0.08376268972739546, "lon": -104.92345661486755, "alt_km": 35768.19958532227, "timestamp": "2025-12-09T11:33:54.471895+00:00", "meta": {"OBJECT_NAME": "EUTELSAT 3B", "OBJECT_ID": "2014-030A", "EPOCH": "2025-12-09T03:18:53.039232", "MEAN_MOTION": 1.00271342, "ECCENTRICITY": 0.0004765, "INCLINATION": 0.0634, "RA_OF_ASC_NODE": 340.9037, "ARG_OF_PERICENTER": 247.3226, "MEAN_ANOMALY": 262.735, "EPHEMERIS_TYPE": 0, "CLASSIFICATION_TYPE": "U", "NORAD_CAT_ID": 39773, "ELEMENT_SET_NO": 999, "REV_AT_EPOCH": 4216, "BSTAR": 0, "MEAN_MOTION_DOT": 2.2e-07, "MEAN_MOTION_DDOT": 0}, "tle": {"line1": "1 39773U 14030A   25343.13811388  .00000022  00000+0  00000+0 0  9999", "line2": "2 39773   0.0634 340.9037 0004765 247.3226 262.7350  1.00271342 42166"}}, "geometry": {"type": "Point", "coordinates": [-104.92345661486755, -0.08376268972739546]}}, {"type": "Feature", "properties": {"norad_id": 40425, "name": "EUTELSAT 115 WEST B", "group": "eutelsat", "lat": -0.0037156966401685762, "lon": 137.04845069573398, "alt_km": 35786.34347305759, "timestamp": "2025-12-09T11:33:54.471920+00:00", "meta": {"OBJECT_NAME": "EUTELSAT 115 WEST B", "OBJECT_ID": "2015-010B", "EPOCH": "2025-12-09T01:01:30.855072", "MEAN_MOTION": 1.00268138, "ECCENTRICITY": 2.78e-05, "INCLINATION": 0.0085, "RA_OF_ASC_NODE": 146.6018, "ARG_OF_PERICENTER": 300.0024, "MEAN_ANOMALY": 251.9196, "EPHEMERIS_TYPE": 0, "CLASSIFICATION_TYPE": "U", "NORAD_CAT_ID": 40425, "ELEMENT_SET_NO": 999, "REV_AT_EPOCH": 3948, "BSTAR": 0, "MEAN_MOTION_DOT": -2.2e-07, "MEAN_MOTION_DDOT": 0}, "tle": {"line1": "1 40425U 15010B   25343.04271823 -.00000022  00000+0  00000+0 0  9999", "line2": "2 40425   0.0085 146.6018 0000278 300.0024 251.9196  1.00268138 39488"}}, "geometry": {"type": "Point", "coordinates": [137.04845069573398, -0.0037156966401685762]}}, {"type": "Feature", "properties": {"norad_id": 40875, "name": "EUTELSAT 8 WEST B", "group": "eutelsat", "lat": -0.07784632349470297, "lon": -116.0524985053071, "alt_km": 35769.22599701176, "timestamp": "2025-12-09T11:33:54.471942+00:00", "meta": {"OBJECT_NAME": "EUTELSAT 8 WEST B", "OBJECT_ID": "2015-039B", "EPOCH": "2025-12-09T03:15:45.838080", "MEAN_MOTION": 1.00271471, "ECCENTRICITY": 0.0004155, "INCLINATION": 0.0644, "RA_OF_ASC_NODE": 359.9458, "ARG_OF_PERICENTER": 259.5349, "MEAN_ANOMALY": 219.6066, "EPHEMERIS_TYPE": 0, "CLASSIFICATION_TYPE": "U", "NORAD_CAT_ID": 40875, "ELEMENT_SET_NO": 999, "REV_AT_EPOCH": 3775, "BSTAR": 0, "MEAN_MOTION_DOT": -6.3e-07, "MEAN_MOTION_DDOT": 0}, "tle": {"line1": "1 40875U 15039B   25343.13594720 -.00000063  00000+0  00000+0 0  9998", "line2": "2 40875   0.0644 359.9458 0004155 259.5349 219.6066  1.00271471 37750"}}, "geometry": {"type": "Point", "coordinates": [-116.0524985053071, -0.07784632349470297]}}, {"type": "Feature", "properties": {"norad_id": 41310, "name": "EUTELSAT 9B", "group": "eutelsat", "lat": -0.032895769348627486, "lon": -99.04580636403567, "alt_km": 35765.3282151583, "timestamp": "2025-12-09T11:33:54.471956+00:00", "meta": {"OBJECT_NAME": "EUTELSAT 9B", "OBJECT_ID": "2016-005A", "EPOCH": "2025-12-09T03:20:37.870944", "MEAN_MOTION": 1.0027211, "ECCENTRICITY": 0.0004886, "INCLINATION": 0.0359, "RA_OF_ASC_NODE": 53.1239, "ARG_OF_PERICENTER": 211.7836, "MEAN_ANOMALY": 232.3966, "EPHEMERIS_TYPE": 0, "CLASSIFICATION_TYPE": "U", "NORAD_CAT_ID": 41310, "ELEMENT_SET_NO": 999, "REV_AT_EPOCH": 3621, "BSTAR": 0, "MEAN_MOTION_DOT": 6.4e-07, "MEAN_MOTION_DDOT": 0}, "tle": {"line1": "1 41310U 16005A   25343.13932721  .00000064  00000+0  00000+0 0  9994", "line2": "2 41310   0.0359  53.1239 0004886 211.7836 232.3966  1.00272110 36212"}}, "geometry": {"type": "Point", "coordinates": [-99.04580636403567, -0.032895769348627486]}}, {"type": "Feature", "properties": {"norad_id": 41382, "name": "EUTELSAT 65 WEST A", "group": "eutelsat", "lat": -0.00930561941588804, "lon": -173.29173875037844, "alt_km": 35783.400972891555, "timestamp": "2025-12-09T11:33:54.471968+00:00", "meta": {"OBJECT_NAME": "EUTELSAT 65 WEST A", "OBJECT_ID": "2016-014A", "EPOCH": "2025-12-09T03:48:38.697408", "MEAN_MOTION": 1.00272783, "ECCENTRICITY": 0.0002667, "INCLINATION": 0.0495, "RA_OF_ASC_NODE": 4.0066, "ARG_OF_PERICENTER": 260.2751, "MEAN_ANOMALY": 165.8246, "EPHEMERIS_TYPE": 0, "CLASSIFICATION_TYPE": "U", "NORAD_CAT_ID": 41382, "ELEMENT_SET_NO": 999, "REV_AT_EPOCH": 3563, "BSTAR": 0, "MEAN_MOTION_DOT": -2.74e-06, "MEAN_MOTION_DDOT": 0}, "tle": {"line1": "1 41382U 16014A   25343.15878122 -.00000274  00000+0  00000+0 0  9993", "line2": "2 41382   0.0495   4.0066 0002667 260.2751 165.8246  1.00272783 35637"}}, "geometry": {"type": "Point", "coordinates": [-173.29173875037844, -0.00930561941588804]}}, {"type": "Feature", "properties": {"norad_id": 41589, "name": "EUTELSAT 117 WEST B", "group": "eutelsat", "lat": -0.004081891387140865, "lon": 134.95446699887984, "alt_km": 35785.18518733169, "timestamp": "2025-12-09T11:33:54.471980+00:00", "meta": {"OBJECT_NAME": "EUTELSAT 117 WEST B", "OBJECT_ID": "2016-038B", "EPOCH": "2025-12-09T01:01:58.310400", "MEAN_MOTION": 1.00271867, "ECCENTRICITY": 3.72e-05, "INCLINATION": 0.0079, "RA_OF_ASC_NODE": 144.6605, "ARG_OF_PERICENTER": 293.2905, "MEAN_ANOMALY": 258.5865, "EPHEMERIS_TYPE": 0, "CLASSIFICATION_TYPE": "U", "NORAD_CAT_ID": 41589, "ELEMENT_SET_NO": 999, "REV_AT_EPOCH": 3475, "BSTAR": 0, "MEAN_MOTION_DOT": -1e-07, "MEAN_MOTION_DDOT": 0}, "tle": {"line1": "1 41589U 16038B   25343.04303600 -.00000010  00000+0  00000+0 0  9998", "line2": "2 41589   0.0079 144.6605 0000372 293.2905 258.5865  1.00271867 34753"}}, "geometry": {"type": "Point", "coordinates": [134.95446699887984, -0.004081891387140865]}}]}